ATLAS CENTAUR R/B       
1 06155U 72065B   26066.05837032  .00001537  00000+0  21241-3 0  9993
2 06155  35.0024 321.1746 0033845 346.7001  13.2805 14.77677625840879
SL-8 R/B                
1 08459U 75112B   26066.27718552  .00000366  00000+0  12904-3 0  9992
2 08459  74.0624  23.3493 0014496 117.6067 242.6561 14.38202138631522
SL-3 R/B                
1 10114U 77057B   26066.25856580  .00018554  00000+0  38939-3 0  9999
2 10114  97.5770 238.0722 0006198 295.3045  64.7561 15.45410174667954
SEASAT 1                
1 10967U 78064A   26066.07508736  .00000243  00000+0  10647-3 0  9993
2 10967 108.0115 120.0133 0002279 285.9434  74.1460 14.46157299506131
SL-14 R/B               
1 11267U 79011B   26066.30010691  .00000787  00000+0  75118-4 0  9992
2 11267  82.5211  98.8390 0017507  67.9049 292.4027 14.91905396528424
SL-8 R/B                
1 11574U 79089B   26066.24856774  .00000393  00000+0  12689-3 0  9997
2 11574  74.0671  95.5633 0017153 268.4812  91.4379 14.42349038435759
SL-14 R/B               
1 11672U 80005B   26066.17732972  .00000669  00000+0  65139-4 0  9996
2 11672  82.5149 309.6194 0015977 166.3983 193.7670 14.90926386476115
SL-8 R/B                
1 12139U 81003B   26066.08666032  .00022353  00000+0  57502-3 0  9995
2 12139  82.9380 292.4313 0262451 187.6793 172.0391 15.10845283314281
SL-3 R/B                
1 12465U 81046B   26066.25363231  .00016959  00000+0  39522-3 0  9995
2 12465  81.2297 292.6699 0019744  30.6306 329.6085 15.41917875438056
SL-3 R/B                
1 12904U 81103B   26066.33876550  .00008295  00000+0  36852-3 0  9996
2 12904  81.1588 216.1895 0012525 294.9740  65.0190 15.21343745972870
SL-3 R/B                
1 13068U 82013B   26066.28207693  .00007167  00000+0  31080-3 0  9994
2 13068  81.1764 163.5916 0022478 185.4304 174.6688 15.21987359403980
SL-3 R/B                
1 13154U 82039B   26066.27137721  .00004141  00000+0  25046-3 0  9995
2 13154  81.1585 218.7498 0029789 332.3452  27.6187 15.10064913381272
