CCSDS_OMM_VERS = 2.0
CREATION_DATE  = 
ORIGINATOR     = 

OBJECT_NAME    = ATLAS CENTAUR R/B
OBJECT_ID      = 1972-065B
CENTER_NAME    = EARTH
REF_FRAME      = TEME
TIME_SYSTEM    = UTC
MEAN_ELEMENT_THEORY = SGP/SGP4

EPOCH          = 2026-03-07T01:24:03.195648
MEAN_MOTION    = 14.77677625
ECCENTRICITY   = .00338456
INCLINATION    = 35.0024
RA_OF_ASC_NODE = 321.1746
ARG_OF_PERICENTER = 346.7001
MEAN_ANOMALY   = 13.2805

EPHEMERIS_TYPE = 0
CLASSIFICATION_TYPE = U
NORAD_CAT_ID   = 6155
ELEMENT_SET_NO = 999
REV_AT_EPOCH   = 84087
BSTAR          = .21240528E-3
MEAN_MOTION_DOT = .1537E-4
MEAN_MOTION_DDOT = 0

CCSDS_OMM_VERS = 2.0
CREATION_DATE  = 
ORIGINATOR     = 

OBJECT_NAME    = SL-8 R/B
OBJECT_ID      = 1975-112B
CENTER_NAME    = EARTH
REF_FRAME      = TEME
TIME_SYSTEM    = UTC
MEAN_ELEMENT_THEORY = SGP/SGP4

EPOCH          = 2026-03-07T06:39:08.828928
MEAN_MOTION    = 14.38202138
ECCENTRICITY   = .00144961
INCLINATION    = 74.0624
RA_OF_ASC_NODE = 23.3493
ARG_OF_PERICENTER = 117.6067
MEAN_ANOMALY   = 242.6561

EPHEMERIS_TYPE = 0
CLASSIFICATION_TYPE = U
NORAD_CAT_ID   = 8459
ELEMENT_SET_NO = 999
REV_AT_EPOCH   = 63152
BSTAR          = .12904001E-3
MEAN_MOTION_DOT = .366E-5
MEAN_MOTION_DDOT = 0

CCSDS_OMM_VERS = 2.0
CREATION_DATE  = 
ORIGINATOR     = 

OBJECT_NAME    = SL-3 R/B
OBJECT_ID      = 1977-057B
CENTER_NAME    = EARTH
REF_FRAME      = TEME
TIME_SYSTEM    = UTC
MEAN_ELEMENT_THEORY = SGP/SGP4

EPOCH          = 2026-03-07T06:12:20.085120
MEAN_MOTION    = 15.45410174
ECCENTRICITY   = .00061985
INCLINATION    = 97.5770
RA_OF_ASC_NODE = 238.0722
ARG_OF_PERICENTER = 295.3045
MEAN_ANOMALY   = 64.7561

EPHEMERIS_TYPE = 0
CLASSIFICATION_TYPE = U
NORAD_CAT_ID   = 10114
ELEMENT_SET_NO = 999
REV_AT_EPOCH   = 66795
BSTAR          = .38939063E-3
MEAN_MOTION_DOT = .18554E-3
MEAN_MOTION_DDOT = 0

CCSDS_OMM_VERS = 2.0
CREATION_DATE  = 
ORIGINATOR     = 

OBJECT_NAME    = SEASAT 1
OBJECT_ID      = 1978-064A
CENTER_NAME    = EARTH
REF_FRAME      = TEME
TIME_SYSTEM    = UTC
MEAN_ELEMENT_THEORY = SGP/SGP4

EPOCH          = 2026-03-07T01:48:07.547904
MEAN_MOTION    = 14.46157299
ECCENTRICITY   = .00022792
INCLINATION    = 108.0115
RA_OF_ASC_NODE = 120.0133
ARG_OF_PERICENTER = 285.9434
MEAN_ANOMALY   = 74.1460

EPHEMERIS_TYPE = 0
CLASSIFICATION_TYPE = U
NORAD_CAT_ID   = 10967
ELEMENT_SET_NO = 999
REV_AT_EPOCH   = 50613
BSTAR          = .10646985E-3
MEAN_MOTION_DOT = .243E-5
MEAN_MOTION_DDOT = 0

CCSDS_OMM_VERS = 2.0
CREATION_DATE  = 
ORIGINATOR     = 

OBJECT_NAME    = SL-14 R/B
OBJECT_ID      = 1979-011B
CENTER_NAME    = EARTH
REF_FRAME      = TEME
TIME_SYSTEM    = UTC
MEAN_ELEMENT_THEORY = SGP/SGP4

EPOCH          = 2026-03-07T07:12:09.237024
MEAN_MOTION    = 14.91905396
ECCENTRICITY   = .00175077
INCLINATION    = 82.5211
RA_OF_ASC_NODE = 98.8390
ARG_OF_PERICENTER = 67.9049
MEAN_ANOMALY   = 292.4027

EPHEMERIS_TYPE = 0
CLASSIFICATION_TYPE = U
NORAD_CAT_ID   = 11267
ELEMENT_SET_NO = 999
REV_AT_EPOCH   = 52842
BSTAR          = .75118316E-4
MEAN_MOTION_DOT = .787E-5
MEAN_MOTION_DDOT = 0

CCSDS_OMM_VERS = 2.0
CREATION_DATE  = 
ORIGINATOR     = 

OBJECT_NAME    = SL-8 R/B
OBJECT_ID      = 1979-089B
CENTER_NAME    = EARTH
REF_FRAME      = TEME
TIME_SYSTEM    = UTC
MEAN_ELEMENT_THEORY = SGP/SGP4

EPOCH          = 2026-03-07T05:57:56.252736
MEAN_MOTION    = 14.42349038
ECCENTRICITY   = .00171532
INCLINATION    = 74.0671
RA_OF_ASC_NODE = 95.5633
ARG_OF_PERICENTER = 268.4812
MEAN_ANOMALY   = 91.4379

EPHEMERIS_TYPE = 0
CLASSIFICATION_TYPE = U
NORAD_CAT_ID   = 11574
ELEMENT_SET_NO = 999
REV_AT_EPOCH   = 43575
BSTAR          = .12688789E-3
MEAN_MOTION_DOT = .393E-5
MEAN_MOTION_DDOT = 0

CCSDS_OMM_VERS = 2.0
CREATION_DATE  = 
ORIGINATOR     = 

OBJECT_NAME    = SL-14 R/B
OBJECT_ID      = 1980-005B
CENTER_NAME    = EARTH
REF_FRAME      = TEME
TIME_SYSTEM    = UTC
MEAN_ELEMENT_THEORY = SGP/SGP4

EPOCH          = 2026-03-07T04:15:21.287808
MEAN_MOTION    = 14.90926386
ECCENTRICITY   = .00159778
INCLINATION    = 82.5149
RA_OF_ASC_NODE = 309.6194
ARG_OF_PERICENTER = 166.3983
MEAN_ANOMALY   = 193.7670

EPHEMERIS_TYPE = 0
CLASSIFICATION_TYPE = U
NORAD_CAT_ID   = 11672
ELEMENT_SET_NO = 999
REV_AT_EPOCH   = 47611
BSTAR          = .65139162E-4
MEAN_MOTION_DOT = .669E-5
MEAN_MOTION_DDOT = 0

CCSDS_OMM_VERS = 2.0
CREATION_DATE  = 
ORIGINATOR     = 

OBJECT_NAME    = SL-8 R/B
OBJECT_ID      = 1981-003B
CENTER_NAME    = EARTH
REF_FRAME      = TEME
TIME_SYSTEM    = UTC
MEAN_ELEMENT_THEORY = SGP/SGP4

EPOCH          = 2026-03-07T02:04:47.451648
MEAN_MOTION    = 15.10845283
ECCENTRICITY   = .02624511
INCLINATION    = 82.9380
RA_OF_ASC_NODE = 292.4313
ARG_OF_PERICENTER = 187.6793
MEAN_ANOMALY   = 172.0391

EPHEMERIS_TYPE = 0
CLASSIFICATION_TYPE = U
NORAD_CAT_ID   = 12139
ELEMENT_SET_NO = 999
REV_AT_EPOCH   = 31428
BSTAR          = .57501856E-3
MEAN_MOTION_DOT = .22353E-3
MEAN_MOTION_DDOT = 0

CCSDS_OMM_VERS = 2.0
CREATION_DATE  = 
ORIGINATOR     = 

OBJECT_NAME    = SL-3 R/B
OBJECT_ID      = 1981-046B
CENTER_NAME    = EARTH
REF_FRAME      = TEME
TIME_SYSTEM    = UTC
MEAN_ELEMENT_THEORY = SGP/SGP4

EPOCH          = 2026-03-07T06:05:13.831584
MEAN_MOTION    = 15.41917875
ECCENTRICITY   = .00197442
INCLINATION    = 81.2297
RA_OF_ASC_NODE = 292.6699
ARG_OF_PERICENTER = 30.6306
MEAN_ANOMALY   = 329.6085

EPHEMERIS_TYPE = 0
CLASSIFICATION_TYPE = U
NORAD_CAT_ID   = 12465
ELEMENT_SET_NO = 999
REV_AT_EPOCH   = 43805
BSTAR          = .39521895E-3
MEAN_MOTION_DOT = .16959E-3
MEAN_MOTION_DDOT = 0

CCSDS_OMM_VERS = 2.0
CREATION_DATE  = 
ORIGINATOR     = 

OBJECT_NAME    = SL-3 R/B
OBJECT_ID      = 1981-103B
CENTER_NAME    = EARTH
REF_FRAME      = TEME
TIME_SYSTEM    = UTC
MEAN_ELEMENT_THEORY = SGP/SGP4

EPOCH          = 2026-03-07T08:07:49.339200
MEAN_MOTION    = 15.21343745
ECCENTRICITY   = .00125257
INCLINATION    = 81.1588
RA_OF_ASC_NODE = 216.1895
ARG_OF_PERICENTER = 294.9740
MEAN_ANOMALY   = 65.0190

EPHEMERIS_TYPE = 0
CLASSIFICATION_TYPE = U
NORAD_CAT_ID   = 12904
ELEMENT_SET_NO = 999
REV_AT_EPOCH   = 97287
BSTAR          = .36852151E-3
MEAN_MOTION_DOT = .8295E-4
MEAN_MOTION_DDOT = 0

CCSDS_OMM_VERS = 2.0
CREATION_DATE  = 
ORIGINATOR     = 

OBJECT_NAME    = SL-3 R/B
OBJECT_ID      = 1982-013B
CENTER_NAME    = EARTH
REF_FRAME      = TEME
TIME_SYSTEM    = UTC
MEAN_ELEMENT_THEORY = SGP/SGP4

EPOCH          = 2026-03-07T06:46:11.446752
MEAN_MOTION    = 15.21987359
ECCENTRICITY   = .00224787
INCLINATION    = 81.1764
RA_OF_ASC_NODE = 163.5916
ARG_OF_PERICENTER = 185.4304
MEAN_ANOMALY   = 174.6688

EPHEMERIS_TYPE = 0
CLASSIFICATION_TYPE = U
NORAD_CAT_ID   = 13068
ELEMENT_SET_NO = 999
REV_AT_EPOCH   = 40398
BSTAR          = .31080431E-3
MEAN_MOTION_DOT = .7167E-4
MEAN_MOTION_DDOT = 0

CCSDS_OMM_VERS = 2.0
CREATION_DATE  = 
ORIGINATOR     = 

OBJECT_NAME    = SL-3 R/B
OBJECT_ID      = 1982-039B
CENTER_NAME    = EARTH
REF_FRAME      = TEME
TIME_SYSTEM    = UTC
MEAN_ELEMENT_THEORY = SGP/SGP4

EPOCH          = 2026-03-07T06:30:46.990944
MEAN_MOTION    = 15.10064913
ECCENTRICITY   = .00297894
INCLINATION    = 81.1585
RA_OF_ASC_NODE = 218.7498
ARG_OF_PERICENTER = 332.3452
MEAN_ANOMALY   = 27.6187

EPHEMERIS_TYPE = 0
CLASSIFICATION_TYPE = U
NORAD_CAT_ID   = 13154
ELEMENT_SET_NO = 999
REV_AT_EPOCH   = 38127
BSTAR          = .25046104E-3
MEAN_MOTION_DOT = .4141E-4
MEAN_MOTION_DDOT = 0

